GSAT0101 (PRN E11)      
1 37846U 11060A   22266.79823623 -.00000081  00000+0  00000+0 0  9992
2 37846  57.0306  18.6680 0001310  73.0403 286.9797  1.70475054 67893
GSAT0102 (PRN E12)      
1 37847U 11060B   22265.84778606 -.00000083  00000+0  00000+0 0  9990
2 37847  57.0311  18.6933 0001248 322.4154 221.0810  1.70475463 67884
GSAT0103 (PRN E19)      
1 38857U 12055A   22266.25102054  .00000027  00000+0  00000+0 0  9998
2 38857  55.1624 139.0099 0002138 254.9041 105.1754  1.70473828 61770
GSAT0104 (PRN E20)      
1 38858U 12055B   22266.22097376  .00000027  00000+0  00000+0 0  9996
2 38858  55.1624 139.0122 0000560 147.7201 212.3863  1.70474146 61880
GSAT0201 (PRN E18)      
1 40128U 14050A   22265.22918208 -.00000067  00000+0  00000+0 0  9996
2 40128  50.2167 328.4267 1620736 127.5699 248.2978  1.85519342 53011
GSAT0202 (PRN E14)      
1 40129U 14050B   22266.02884488 -.00000062  00000+0  00000+0 0  9993
2 40129  50.2397 327.4581 1617836 128.4101 247.2723  1.85519861 55194
GSAT0203 (PRN E26)      
1 40544U 15017A   22265.99166948 -.00000083  00000+0  00000+0 0  9990
2 40544  56.8258  18.7097 0003412 222.8218 137.1566  1.70476304 45965
GSAT0204 (PRN E22)      
1 40545U 15017B   22267.41777589 -.00000080  00000+0  00000+0 0  9996
2 40545  56.8320  18.6837 0003730 206.9598 153.0275  1.70475859  9030
GSAT0205 (PRN E24)      
1 40889U 15045A   22263.66557116  .00000039  00000+0  00000+0 0  9996
2 40889  55.5662 259.3318 0004062 349.8978  10.1050  1.70473397 43736
GSAT0206 (PRN E30)      
1 40890U 15045B   22266.23266910  .00000037  00000+0  00000+0 0  9991
2 40890  55.5641 259.2567 0003058 321.9586  38.0220  1.70473289 43806
GSAT0209 (PRN E09)      
1 41174U 15079A   22265.23369432  .00000019  00000+0  00000+0 0  9996
2 41174  55.1788 138.7422 0002843 332.5022  27.5797  1.70474261 42100
GSAT0208 (PRN E08)      
1 41175U 15079B   22266.03973233  .00000025  00000+0  00000+0 0  9993
2 41175  55.1769 138.7184 0002852 319.3370  40.7438  1.70474197 41953
GSAT0211 (PRN E02)      
1 41549U 16030A   22266.15859623  .00000038  00000+0  00000+0 0  9999
2 41549  55.7101 259.2020 0004664 306.7931  53.1667  1.70474865 39432
GSAT0210 (PRN E01)      
1 41550U 16030B   22267.03775970  .00000036  00000+0  00000+0 0  9999
2 41550  55.7090 259.1793 0004658 280.3645  79.5807  1.70474861 39444
GSAT0207 (PRN E07)      
1 41859U 16069A   22267.28721212  .00000035  00000+0  00000+0 0  9999
2 41859  54.8404 138.8425 0002753 309.1118  50.9731  1.70472829 36188
GSAT0212 (PRN E03)      
1 41860U 16069B   22265.38085352  .00000019  00000+0  00000+0 0  9990
2 41860  54.8368 138.8928 0002052   2.9195 357.1792  1.70472743 36401
GSAT0213 (PRN E04)      
1 41861U 16069C   22266.91934435  .00000032  00000+0  00000+0 0  9991
2 41861  54.8399 138.8554 0002185 271.3449  88.7373  1.70473007 36295
GSAT0214 (PRN E05)      
1 41862U 16069D   22267.06649527  .00000033  00000+0  00000+0 0  9995
2 41862  54.8381 138.8458 0001386 280.2475  79.8450  1.70472908 36421
GSAT0215 (PRN E21)      
1 43055U 17079A   22265.20993278  .00000039  00000+0  00000+0 0  9998
2 43055  55.6865 259.0591 0004112 275.5500  84.4096  1.70474069 29737
GSAT0216 (PRN E25)      
1 43056U 17079B   22267.26182302  .00000036  00000+0  00000+0 0  9992
2 43056  55.6857 259.0024 0005784 278.1713  81.7592  1.70474160 29789
GSAT0217 (PRN E27)      
1 43057U 17079C   22265.72234958  .00000038  00000+0  00000+0 0  9999
2 43057  55.6849 259.0445 0005236 288.3772  71.5702  1.70474120 29740
GSAT0218 (PRN E31)      
1 43058U 17079D   22265.94238513  .00000038  00000+0  00000+0 0  9995
2 43058  55.6848 259.0358 0006239 274.8103  85.1217  1.70474132 29773
GSAT0221 (PRN E15)      
1 43564U 18060A   22267.01437659 -.00000080  00000+0  00000+0 0  9998
2 43564  57.2077  18.5225 0003144 247.7532 112.2196  1.70476194 25948
GSAT0222 (PRN E33)      
1 43565U 18060B   22265.47449511 -.00000084  00000+0  00000+0 0  9991
2 43565  57.2095  18.5646 0002392 254.4247 105.5536  1.70476257 25963
GSAT0219 (PRN E36)      
1 43566U 18060C   22266.86820457 -.00000081  00000+0  00000+0 0  9995
2 43566  57.2103  18.5291 0002090 250.7079 109.2754  1.70476263 25967
GSAT0220 (PRN E13)      
1 43567U 18060D   22266.50180194 -.00000082  00000+0  00000+0 0  9995
2 43567  57.2102  18.5398 0002548 247.8363 112.1422  1.70476109 25948
GSAT0223                
1 49809U 21116A   22266.94442258 -.00000081  00000+0  00000+0 0  9995
2 49809  57.2023  18.4257 0003544 184.4119 177.2777  1.70476228  4966
GSAT0224                
1 49810U 21116B   22264.70983939 -.00000086  00000+0  00000+0 0  9990
2 49810  57.2029  18.4838 0002930 169.0455  13.7064  1.70476418  4941
